COMMENT,ORIGINATOR,NORAD_CAT_ID,OBJECT_NAME,OBJECT_TYPE,CLASSIFICATION_TYPE,INTLDES,EPOCH,EPOCH_MICROSECONDS,MEAN_MOTION,ECCENTRICITY,INCLINATION,RA_OF_ASC_NODE,ARG_OF_PERICENTER,MEAN_ANOMALY,EPHEMERIS_TYPE,ELEMENT_SET_NO,REV_AT_EPOCH,BSTAR,MEAN_MOTION_DOT,MEAN_MOTION_DDOT,FILE,TLE_LINE0,TLE_LINE1,TLE_LINE2,OBJECT_ID,OBJECT_NUMBER,SEMIMAJOR_AXIS,PERIOD,APOGEE,PERIGEE
"GENERATED VIA SPACETRACK.ORG API","JSPOC","37181","CZ-4B R/B","ROCKET BODY","U","10051C","2016-01-09 22:33:25","854048","14.96760512","0.0111581","97.5859","359.517","355.1959","56.1454","0","999","28654","0.00012573","1.566e-05","0","1978726","0 CZ-4B R/B","1 37181U 10051C   16009.93988257 +.00001566 +00000-0 +12573-3 0  9993","2 37181 097.5859 359.5170 0111581 355.1959 056.1454 14.96760512286540","2010-051C","37181","6955.050","96.207","654.520","499.310"
"GENERATED VIA SPACETRACK.ORG API","JSPOC","10114","SL-3 R/B","ROCKET BODY","U","77057B","2016-01-09 22:33:30","291552","15.15915222","0.0014254","97.2099","212.7065","357.8055","2.3114","0","999","10390","5.9519e-05","1.08e-05","0","1978726","0 SL-3 R/B","1 10114U 77057B   16009.93993393 +.00001080 +00000-0 +59519-4 0  9999","2 10114 097.2099 212.7065 0014254 357.8055 002.3114 15.15915222103904","1977-057B","10114","6896.338","94.992","528.033","508.373"
"GENERATED VIA SPACETRACK.ORG API","JSPOC","6257","SL-3 R/B","ROCKET BODY","U","72085B","2016-01-09 22:33:31","548672","14.06372821","0.0057379","81.261","305.5424","164.4147","195.8806","0","999","21553","1.4e-05","3.6e-07","0","1978726","0 SL-3 R/B","1  6257U 72085B   16009.93994848 +.00000036 +00000-0 +14000-4 0  9990","2  6257 081.2610 305.5424 0057379 164.4147 195.8806 14.06372821215538","1972-085B","6257","7249.947","102.391","913.412","830.213"
"GENERATED VIA SPACETRACK.ORG API","JSPOC","27640","CORIOLIS","PAYLOAD","U","03001A","2016-01-09 22:33:31","804416","14.18880735","0.0014371","98.7502","21.0955","17.4549","3.7123","0","999","67362","3.6438e-05","3.2e-07","0","1978726","0 CORIOLIS","1 27640U 03001A   16009.93995144 +.00000032 +00000-0 +36438-4 0  9996","2 27640 098.7502 021.0955 0014371 017.4549 003.7123 14.18880735673625","2003-001A","27640","7207.277","101.488","839.500","818.784"
"GENERATED VIA SPACETRACK.ORG API","JSPOC","4382","DFH-1","PAYLOAD","U","70034A","2016-01-09 22:33:34","5024","13.07026804","0.1053326","68.4201","212.0632","146.1834","221.1198","0","999","14683","0.00024071","1.532e-05","0","1978726","0 DFH-1","1  4382U 70034A   16009.93997691 +.00001532 +00000-0 +24071-3 0  9998","2  4382 068.4201 212.0632 1053326 146.1834 221.1198 13.07026804146830","1970-034A","4382","7612.819","110.173","2036.562","432.806"
"GENERATED VIA SPACETRACK.ORG API","JSPOC","16809","COSMOS 1736 FUEL CORE","PAYLOAD","U","86024E","2016-01-09 22:33:37","531872","13.81635809","0.0034763","64.9888","259.2566","335.1187","109.4122","0","999","50557","2.8538e-05","-5.8e-07","0","1978726","0 COSMOS 1736 FUEL CORE","1 16809U 86024E   16009.94001773 -.00000058 +00000-0 +28538-4 0  9995","2 16809 064.9888 259.2566 0034763 335.1187 109.4122 13.81635809505570","1986-024E","16809","7336.227","104.224","983.595","932.589"
"GENERATED VIA SPACETRACK.ORG API","JSPOC","17146","SL-8 R/B","ROCKET BODY","U","86092J","2016-01-09 22:33:40","789152","12.23623528","0.0124361","74.0154","305.5164","178.4153","244.6841","0","999","30150","-0.00013137","-2.9e-07","0","1978726","0 SL-8 R/B","1 17146U 86092J   16009.94005543 -.00000029 +00000-0 -13137-3 0  9991","2 17146 074.0154 305.5164 0124361 178.4153 244.6841 12.23623528301504","1986-092J","17146","7954.934","117.683","1675.728","1477.871"
"GENERATED VIA SPACETRACK.ORG API","JSPOC","7736","COSMOS 726","PAYLOAD","U","75028A","2016-01-09 22:33:47","995776","13.78169322","0.0024842","82.996","159.6011","312.269","160.0133","0","999","4869","4.1489e-06","1.9e-07","0","1978726","0 COSMOS 726","1  7736U 75028A   16009.94013884 +.00000019 +00000-0 +41489-5 0  9999","2  7736 082.9960 159.6011 0024842 312.2690 160.0133 13.78169322048698","1975-028A","7736","7348.524","104.486","988.644","952.133"
"GENERATED VIA SPACETRACK.ORG API","JSPOC","21232","METEOR 3-4","PAYLOAD","U","91030A","2016-01-09 22:33:47","500704","13.16612173","0.0012243","82.5424","0.0015","322.2367","93.408","0","999","18763","-0.00034396","-1.19e-06","0","1978726","0 METEOR 3-4","1 21232U 91030A   16009.94013311 -.00000119 +00000-0 -34396-3 0  9992","2 21232 082.5424 000.0015 0012243 322.2367 093.4080 13.16612173187630","1991-030A","21232","7575.824","109.371","1206.965","1188.414"
"GENERATED VIA SPACETRACK.ORG API","JSPOC","4814","SL-3 R/B","ROCKET BODY","U","70113B","2016-01-09 22:33:48","179808","15.30233877","0.0029877","81.1466","296.3803","73.2821","287.169","0","999","45479","0.0001329","3.968e-05","0","1978726","0 SL-3 R/B","1  4814U 70113B   16009.94014097 +.00003968 +00000-0 +13290-3 0  9993","2  4814 081.1466 296.3803 0029877 073.2821 287.1690 15.30233877454793","1970-113B","4814","6853.250","94.103","495.591","454.640"
"GENERATED VIA SPACETRACK.ORG API","JSPOC","24714","NAHUEL 1A","PAYLOAD","U","97002B","2016-01-09 22:33:56","581344","0.99389598","0.0005832","6.8953","53.6407","143.3538","229.4621","0","999","6921","0","-2.42e-06","0","1978398","0 NAHUEL 1A","1 24714U 97002B   16009.94023821 -.00000242  00000-0  00000+0 0  9999","2 24714   6.8953  53.6407 0005832 143.3538 229.4621  0.99389598 69215","1997-002B","24714","42413.868","1448.843","36060.469","36010.997"
"GENERATED VIA SPACETRACK.ORG API","JSPOC","32375","BREEZE-M R/B","ROCKET BODY","U","07058C","2016-01-09 22:33:56","581344","1.04428202","0.0235098","6.2848","52.5055","116.0447","259.9015","0","999","3068","0","-5.4e-07","0","1978440","0 BREEZE-M R/B","1 32375U 07058C   16009.94023821 -.00000054  00000-0  00000+0 0  9994","2 32375   6.2848  52.5055 0235098 116.0447 259.9015  1.04428202 30683","2007-058C","32375","41038.357","1378.937","35625.026","33695.419"
"GENERATED VIA SPACETRACK.ORG API","JSPOC","9013","SL-8 R/B","ROCKET BODY","U","76067B","2016-01-09 22:33:58","58784","12.35320536","0.0721682","65.8679","304.2842","278.3991","136.6307","0","999","78165","-7.6459e-05","-8e-07","0","1978726","0 SL-8 R/B","1  9013U 76067B   16009.94025531 -.00000080 +00000-0 -76459-4 0  9999","2  9013 065.8679 304.2842 0721682 278.3991 136.6307 12.35320536781657","1976-067B","9013","7904.639","116.568","2096.968","956.040"
"GENERATED VIA SPACETRACK.ORG API","JSPOC","20432","COSMOS 2056","PAYLOAD","U","90004A","2016-01-09 22:34:06","263328","14.33201542","0.0023034","74.034","296.2906","197.5879","162.4478","0","999","35760","2.5227e-05","4.3e-07","0","1978726","0 COSMOS 2056","1 20432U 90004A   16009.94035027 +.00000043 +00000-0 +25227-4 0  9999","2 20432 074.0340 296.2906 0023034 197.5879 162.4478 14.33201542357601","1990-004A","20432","7159.186","100.474","797.541","764.560"
"GENERATED VIA SPACETRACK.ORG API","JSPOC","25417","ORBCOMM FM 16","PAYLOAD","U","98046E","2016-01-09 22:34:09","36768","14.32157659","0.0002659","44.9973","204.1689","45.1696","314.9366","0","999","90967","0.00010127","1.35e-06","0","1978726","0 ORBCOMM FM 16","1 25417U 98046E   16009.94038237 +.00000135 +00000-0 +10127-3 0  9991","2 25417 044.9973 204.1689 0002659 045.1696 314.9366 14.32157659909676","1998-046E","25417","7162.664","100.547","786.434","782.625"
"GENERATED VIA SPACETRACK.ORG API","JSPOC","11751","SL-8 R/B","ROCKET BODY","U","80026B","2016-01-09 22:34:29","79840","13.77002724","0.0006496","65.8399","359.0873","349.0474","37.2646","0","999","79743","-2.1485e-05","-1.02e-06","0","1978726","0 SL-8 R/B","1 11751U 80026B   16009.94061435 -.00000102 +00000-0 -21485-4 0  9998","2 11751 065.8399 359.0873 0006496 349.0474 037.2646 13.77002724797439","1980-026B","11751","7352.673","104.574","979.315","969.762"
"GENERATED VIA SPACETRACK.ORG API","JSPOC","21784","COSMOS 2170","PAYLOAD","U","91077F","2016-01-09 22:34:31","795392","12.62505719","0.0001305","82.6079","172.0691","282.59","246.2242","0","999","11313","3.2764e-06","1.1e-07","0","1978726","0 COSMOS 2170","1 21784U 91077F   16009.94064578 +.00000011 +00000-0 +32764-5 0  9994","2 21784 082.6079 172.0691 0001305 282.5900 246.2242 12.62505719113136","1991-077F","21784","7790.756","114.058","1413.637","1411.604"
"GENERATED VIA SPACETRACK.ORG API","JSPOC","10513","SL-8 R/B","ROCKET BODY","U","77116B","2016-01-09 22:34:36","676992","13.78450325","0.0035775","65.8318","349.5187","291.9288","98.7344","0","999","91546","-1.4398e-06","-8.3e-07","0","1978726","0 SL-8 R/B","1 10513U 77116B   16009.94070228 -.00000083 +00000-0 -14398-5 0  9993","2 10513 065.8318 349.5187 0035775 291.9288 098.7344 13.78450325915464","1977-116B","10513","7347.525","104.465","995.676","943.104"
"GENERATED VIA SPACETRACK.ORG API","JSPOC","18665","COSMOS 1900","PAYLOAD","U","87101A","2016-01-09 22:34:39","292320","14.54362569","0.0045507","66.0828","220.1059","286.4523","73.1584","0","999","49415","1.8336e-05","-2.6e-07","0","1978726","0 COSMOS 1900","1 18665U 87101A   16009.94073255 -.00000026 +00000-0 +18336-4 0  9998","2 18665 066.0828 220.1059 0045507 286.4523 073.1584 14.54362569494154","1987-101A","18665","7089.572","99.012","743.700","679.174"
"GENERATED VIA SPACETRACK.ORG API","JSPOC","11129","COSMOS 1052","PAYLOAD","U","78109B","2016-01-09 22:34:40","697184","12.53672335","0.0049262","74.014","215.237","153.5553","310.0228","0","999","69765","0.00010671","1e-08","0","1978726","0 COSMOS 1052","1 11129U 78109B   16009.94074881 +.00000001 +00000-0 +10671-3 0  9995","2 11129 074.0140 215.2370 0049262 153.5553 310.0228 12.53672335697658","1978-109B","11129","7827.309","114.862","1487.732","1410.615"
